COSMOS 2497             
1 39762U 14028B   24099.97871199  .00000018  00000+0  60692-4 0  9992
2 39762  82.4471 250.6750 0020072  17.5374 342.6394 12.42877935448238
COSMOS 2498             
1 39763U 14028C   24100.00977035  .00000011  00000+0  61674-5 0  9991
2 39763  82.4435 249.4757 0020700  17.5903 342.5889 12.42936801448267
COSMOS 2499 (RS-47)     
1 39765U 14028E   24100.51924166  .00000030  00000+0  63304-4 0  9998
2 39765  82.4473  71.3390 0232854  76.7410 285.9550 12.82870990462835
SPROUT                  
1 39770U 14029E   24100.35574337  .00060526  00000+0  21619-2 0  9995
2 39770  98.0086 246.7350 0002312 308.9364  51.1667 15.28617442537075
HODOYOSHI-4             
1 40011U 14033B   24100.53119296  .00001575  00000+0  19466-3 0  9996
2 40011  97.5906 313.6057 0026798  67.2884 293.1160 14.83887106530181
UNISAT-6                
1 40012U 14033C   24099.95626013  .00004019  00000+0  53624-3 0  9990
2 40012  97.6958 265.2661 0053917 169.9675 190.2626 14.79108358527601
DEIMOS-2                
1 40013U 14033D   24100.49010848  .00002065  00000+0  22898-3 0  9994
2 40013  97.6899 349.2217 0002458  91.1683 268.9815 14.88314749531549
BUGSAT-1 (TITA)         
1 40014U 14033E   24100.52232636  .00005787  00000+0  43023-3 0  9997
2 40014  98.1328 138.6788 0036118   5.1298 355.0289 15.02899629535339
SAUDISAT 4              
1 40016U 14033G   24100.43546730  .00001102  00000+0  16069-3 0  9999
2 40016  97.6603 269.6741 0047738 150.7778 209.6119 14.76933237528078
APRIZESAT 9             
1 40018U 14033J   24100.38878108  .00000989  00000+0  16113-3 0  9994
2 40018  97.7923 248.8703 0068045 247.5249 111.8744 14.71674892526086
BRITE-CA1 (TORONTO)     
1 40020U 14033L   24100.37376025  .00001073  00000+0  18197-3 0  9996
2 40020  97.8659 239.9770 0082608 312.3919  47.0315 14.69077724524874
DUCHIFAT-1              
1 40021U 14033M   24100.39957653  .00010017  00000+0  71191-3 0  9992
2 40021  98.0885  80.8408 0012223 344.9572  15.1287 15.04845784533774
NANOSATC-BR1            
1 40024U 14033Q   24100.41236236  .00007743  00000+0  60420-3 0  9990
2 40024  98.0554  69.7874 0009025  52.0086 308.1950 15.01417106533442
QB50P1                  
1 40025U 14033R   24099.86600247  .00006441  00000+0  54599-3 0  9998
2 40025  98.0355  58.4464 0011288  34.0025 326.1917 14.98277958533008
DTUSAT-2                
1 40030U 14033W   24099.40517426  .00006652  00000+0  58158-3 0  9999
2 40030  98.0024  50.0964 0011136  38.4456 321.7556 14.97062514532253
FLOCK 1C-4              
1 40031U 14033X   24100.40459614  .00013493  00000+0  95859-3 0  9997
2 40031  98.0748  73.6571 0006840  12.8785 347.2614 15.04816143533364
QB50P2                  
1 40032U 14033Y   24100.37856939  .00005376  00000+0  47043-3 0  9998
2 40032  98.0015  51.1062 0010922  32.7823 327.4074 14.97120215532894
PERSEUS-M1              
1 40039U 14033AF  24100.21807387  .00002385  00000+0  25450-3 0  9996
2 40039  97.9059  27.0532 0014715  65.1879 295.0867 14.89722509531924
POLYITAN-1              
1 40042U 14033AJ  24100.38448091  .00008876  00000+0  70767-3 0  9993
2 40042  98.0559  61.9968 0014808  16.8842 343.2871 15.00492915533024
TIGRISAT                
1 40043U 14033AK  24099.98105966  .00003085  00000+0  42005-3 0  9999
2 40043  97.6881 265.7555 0056428 167.8385 192.4204 14.78323917527236
AISAT                   
1 40054U 14034B   24100.00112403  .00005818  00000+0  64613-3 0  9997
2 40054  98.3459 311.7776 0009853 352.4804   7.6261 14.87593466527522
CANX-4                  
1 40055U 14034C   24100.40522068  .00001374  00000+0  19923-3 0  9991
2 40055  98.3967 292.3079 0014379  54.0187 306.2353 14.77721548526426
CANX-5                  
1 40056U 14034D   24100.41080550  .00001384  00000+0  20070-3 0  9994
2 40056  98.3967 292.3137 0014377  54.2267 306.0277 14.77730005526422
VELOX-I                 
1 40057U 14034E   24100.54279288  .00004512  00000+0  53503-3 0  9990
2 40057  98.3502 312.4155 0009350  11.9230 348.2203 14.85032911527515
GONETS-M 10             
1 40063U 14036C   24100.16447368  .00000013  00000+0  23286-4 0  9991
2 40063  82.5064  83.9312 0023096  85.3807 274.9910 12.42910643443192
METEOR-M 2              
1 40069U 14037A   24100.44607203  .00000154  00000+0  90132-4 0  9995
2 40069  98.4362  97.7626 0005466 186.2371 173.8740 14.20924715505868
DX1                     
1 40071U 14037C   24100.54564176  .00001982  00000+0  24264-3 0  9992
2 40071  98.3371   9.9261 0007836 356.1291   3.9860 14.84404092527458
UKUBE-1                 
1 40074U 14037F   24100.31422675  .00005415  00000+0  53493-3 0  9998
2 40074  98.3420  26.0915 0002761 320.1484  39.9530 14.92391001528503
GAOFEN-2                
1 40118U 14049A   24100.48454672  .00001293  00000+0  17481-3 0  9997
2 40118  97.6691 154.1094 0003804 316.8171  43.2743 14.80636172521065
BRITE-PL2 (HEWELIUSZ)   
1 40119U 14049B   24100.25266734  .00002047  00000+0  22696-3 0  9995
2 40119  97.8781 200.2779 0015204 227.9167 132.0757 14.88310792522412
HODOYOSHI-1             
1 40299U 14070B   24100.45240349  .00017828  00000+0  39150-3 0  9990
2 40299  97.1472 161.5606 0006530 283.5573  76.4948 15.44066001524509
CBERS 4                 
1 40336U 14079A   24100.53105884  .00000197  00000+0  83373-4 0  9992
2 40336  98.4047 170.6391 0001398 125.1839 234.9478 14.35490506489394
SMAP                    
1 40376U 15003A   24100.17293208  .00000699  00000+0  14421-3 0  9996
2 40376  98.1305 107.5384 0001647  93.6613 266.4778 14.63430185490763
CP10 (EXOCUBE)          
1 40380U 15003E   24099.96665377  .00097675  00000+0  95557-3 0  9994
2 40380  99.1014 105.6598 0048911 359.6645   0.4567 15.64264955508547
GONETS-M 11             
1 40552U 15020A   24099.98857437  .00000050  00000+0  28743-3 0  9990
2 40552  82.4884 168.9364 0014933 308.0450  51.9282 12.42896895409452
GONETS-M 12             
1 40553U 15020B   24100.20482216  .00000052  00000+0  30196-3 0  9995
2 40553  82.4920 169.7004 0013425 290.3558  69.6079 12.42877521409513
GONETS-M 13             
1 40554U 15020C   24099.93506382  .00000051  00000+0  29618-3 0  9990
2 40554  82.4880 168.7386 0011986 273.9476  86.0233 12.42867167409416
DMC3-FM1                
1 40715U 15032A   24100.50496974  .00000865  00000+0  11154-3 0  9992
2 40715  97.7601 341.4048 0006453 145.5463 214.6170 14.83466384471391
DMC3-FM2                
1 40716U 15032B   24100.46061774  .00000825  00000+0  10660-3 0  9991
2 40716  97.7653 342.3854 0008234 152.8039 207.3608 14.83469417471387
DMC3-FM3                
1 40717U 15032C   24100.48305659  .00000636  00000+0  83768-4 0  9997
2 40717  97.7700 343.6465 0009771 151.2201 208.9554 14.83441641471391
CARBONITE 1 (CBNT-1)    
1 40718U 15032D   24100.50017167  .00001838  00000+0  26053-3 0  9993
2 40718  97.6648 303.9731 0016384  32.1680 328.0528 14.78059285471111
DEORBITSAIL             
1 40719U 15032E   24100.37088702  .00005319  00000+0  62198-3 0  9990
2 40719  97.6963 326.0382 0013797   9.8167 350.3316 14.85433531471870
2015-049A               
1 40899U 15049A   24100.52119091  .00019912  00000+0  56030-3 0  9992
2 40899  97.4712 115.2408 0009506 183.6473 176.4704 15.36472171474084
KAITUO 1A               
1 40904U 15049F   24100.48654605  .00026147  00000+0  63602-3 0  9990
2 40904  97.4904 115.1704 0008552 183.5570 176.5617 15.40908866473846
2015-049G               
1 40905U 15049G   24100.48256082  .00008393  00000+0  32194-3 0  9993
2 40905  97.5254 108.9391 0010869 215.1063 144.9460 15.26696840473228
XW-2C                   
1 40906U 15049H   24100.51961547  .00022631  00000+0  60841-3 0  9998
2 40906  97.4842 115.7576 0009579 173.8471 186.2893 15.37862682473906
XW-2D                   
1 40907U 15049J   24100.49762591  .00030749  00000+0  69318-3 0  9991
2 40907  97.4792 117.6249 0008863 160.7352 199.4232 15.43162092474085
LILACSAT-2              
1 40908U 15049K   24100.52096532  .00007791  00000+0  31748-3 0  9998
2 40908  97.5272 108.8052 0011269 224.2231 135.8106 15.24693607473027
XW-2B                   
1 40911U 15049N   24100.49504845  .00030394  00000+0  69791-3 0  9993
2 40911  97.4768 117.8111 0008839 162.6734 197.4816 15.42613704473952
COSMOS 2507             
1 40920U 15050A   24100.23213998  .00000020  00000+0  76059-4 0  9992
2 40920  82.4944 217.0312 0008318 289.6236  70.3946 12.42885751387639
COSMOS 2508             
1 40921U 15050B   24100.17776687  .00000021  00000+0  82268-4 0  9995
2 40921  82.4898 215.8707 0012754 328.2091  31.8218 12.42868559387619
COSMOS 2509             
1 40922U 15050C   24099.96336512  .00000021  00000+0  77230-4 0  9992
2 40922  82.4899 216.0873 0015232 343.1004  16.9566 12.42877087387595
LAPAN-A2                
1 40931U 15052B   24100.24272061  .00001266  00000+0  84242-4 0  9999
2 40931   6.0024 125.2751 0013232 190.0609 169.9254 14.77724341461355
LQSAT                   
1 40958U 15057A   24100.53501566  .00000917  00000+0  14453-3 0  9998
2 40958  97.6739 124.3029 0017206 347.9089  12.1705 14.74556463457496
LINGQIAO VIDEO A        
1 40959U 15057B   24100.55161964  .00000902  00000+0  14134-3 0  9995
2 40959  97.6732 125.4657 0017074 347.4405  12.6377 14.74876190457570
LINGQIAO VIDEO B        
1 40960U 15057C   24100.51839859  .00001005  00000+0  15608-3 0  9990
2 40960  97.6745 126.5661 0017208 347.9071  12.1724 14.75010101457604
JILIN-1                 
1 40961U 15057D   24100.49303595  .00001033  00000+0  15806-3 0  9992
2 40961  97.6784 129.3015 0017022 344.7682  15.3013 14.75619063457708
ELEKTRO-L 2             
1 41105U 15074A   24099.79524628 -.00000121  00000+0  00000+0 0  9998
2 41105   4.6653  80.2729 0002045 216.6760 172.3419  1.00270023 30504
TELEOS-1                
1 41169U 15077D   24099.99382851  .00016345  00000+0  55456-3 0  9996
2 41169  14.9819 332.5145 0007522 338.0728  21.9272 15.27676576460246
